[
    {
        "Altitude(m)": 611965.2062989478,
        "Argument of Periapsis(deg)": 0.0,
        "Eccentricity": 0.0,
        "Inclination(deg)": 60.0,
        "Latitude(deg)": 59.14022504789248,
        "Longitude(deg)": 178.96997775794333,
        "Mean Anomaly(deg)": 81.81819999999999,
        "RAAN(deg)": 205.0,
        "Satellite Name": "Test1 907",
        "Satellite Number": 907,
        "Semi-Major Axis(m)": 6980739.136638005,
        "Time(s)": 0
    },
    {
        "Altitude(m)": 611995.8311198592,
        "Argument of Periapsis(deg)": 0.00010418945913296404,
        "Eccentricity": 0.0,
        "Inclination(deg)": 60.0,
        "Latitude(deg)": 59.28332312401504,
        "Longitude(deg)": -179.89665707741491,
        "Mean Anomaly(deg)": 82.43830614546184,
        "RAAN(deg)": 204.99957995086024,
        "Satellite Name": "Test1 907",
        "Satellite Number": 907,
        "Semi-Major Axis(m)": 6980739.136638005,
        "Time(s)": 10
    }
]